start=new Date('2022-01-10T00:00:00.000Z').valueOf();
sats=[{"DECAY_DATE":null,"MEAN_MOTION_DOT":"0.00001826","PERIOD":"95.592","RCS_SIZE":"LARGE","CENTER_NAME":"EARTH","OBJECT_ID":"2020-055E","EPOCH":"2022-01-09T14:02:13.555104","ARG_OF_PERICENTER":"93.5388","APOAPSIS":"548.324","OBJECT_TYPE":"PAYLOAD","MEAN_ANOMALY":"266.5783","REF_FRAME":"TEME","SEMIMAJOR_AXIS":"6925.359","CLASSIFICATION_TYPE":"U","TLE_LINE2":"2 46031  53.0546 110.6332 0001589  93.5388 266.5783 15.06396626 79764","COUNTRY_CODE":"US","INCLINATION":"53.0546","SITE":"AFETR","MEAN_ELEMENT_THEORY":"SGP4","ECCENTRICITY":"0.00015890","GP_ID":"193525130","LAUNCH_DATE":"2020-08-07","MEAN_MOTION":"15.06396626","EPHEMERIS_TYPE":"0","TLE_LINE1":"1 46031U 20055E   22009.58487911  .00001826  00000-0  14147-3 0  9999","PERIAPSIS":"546.123","FILE":"3268062","TIME_SYSTEM":"UTC","ELEMENT_SET_NO":"999","OBJECT_NAME":"STARLINK-1544","RA_OF_ASC_NODE":"110.6332","MEAN_MOTION_DDOT":"0.0000000000000","REV_AT_EPOCH":"7976","NORAD_CAT_ID":"46031","BSTAR":"0.00014147000000"},{"NORAD_CAT_ID":"46032","BSTAR":"0.00002108000000","REV_AT_EPOCH":"7979","MEAN_MOTION_DDOT":"0.0000000000000","RA_OF_ASC_NODE":"110.1969","OBJECT_NAME":"STARLINK-1555","FILE":"3268323","ELEMENT_SET_NO":"999","TIME_SYSTEM":"UTC","TLE_LINE1":"1 46032U 20055F   22009.68071102  .00000033  00000-0  21080-4 0  9996","PERIAPSIS":"546.451","MEAN_MOTION":"15.06398367","EPHEMERIS_TYPE":"0","LAUNCH_DATE":"2020-08-07","GP_ID":"193556983","ECCENTRICITY":"0.00011090","SITE":"AFETR","INCLINATION":"53.0537","MEAN_ELEMENT_THEORY":"SGP4","COUNTRY_CODE":"US","TLE_LINE2":"2 46032  53.0537 110.1969 0001109  93.1041 267.0075 15.06398367 79793","CLASSIFICATION_TYPE":"U","REF_FRAME":"TEME","SEMIMAJOR_AXIS":"6925.354","MEAN_ANOMALY":"267.0075","APOAPSIS":"547.987","OBJECT_TYPE":"PAYLOAD","ARG_OF_PERICENTER":"93.1041","EPOCH":"2022-01-09T16:20:13.432128","OBJECT_ID":"2020-055F","RCS_SIZE":"LARGE","CENTER_NAME":"EARTH","PERIOD":"95.592","DECAY_DATE":null,"MEAN_MOTION_DOT":"0.00000033"},{"TLE_LINE2":"2 46033  53.0550 110.2885 0001324  91.9063 268.2077 15.06395298 79768","COUNTRY_CODE":"US","SEMIMAJOR_AXIS":"6925.363","REF_FRAME":"TEME","CLASSIFICATION_TYPE":"U","EPOCH":"2022-01-09T15:53:41.493120","ARG_OF_PERICENTER":"91.9063","OBJECT_TYPE":"PAYLOAD","APOAPSIS":"548.145","MEAN_ANOMALY":"268.2077","MEAN_MOTION_DOT":"0.00001783","DECAY_DATE":null,"CENTER_NAME":"EARTH","RCS_SIZE":"LARGE","PERIOD":"95.592","OBJECT_ID":"2020-055G","REV_AT_EPOCH":"7976","BSTAR":"0.00013858000000","NORAD_CAT_ID":"46033","FILE":"3268323","TIME_SYSTEM":"UTC","ELEMENT_SET_NO":"999","OBJECT_NAME":"STARLINK-1556","RA_OF_ASC_NODE":"110.2885","MEAN_MOTION_DDOT":"0.0000000000000","EPHEMERIS_TYPE":"0","MEAN_MOTION":"15.06395298","TLE_LINE1":"1 46033U 20055G   22009.66228580  .00001783  00000-0  13858-3 0  9995","PERIAPSIS":"546.311","MEAN_ELEMENT_THEORY":"SGP4","SITE":"AFETR","INCLINATION":"53.0550","ECCENTRICITY":"0.00013240","GP_ID":"193556716","LAUNCH_DATE":"2020-08-07"},{"CLASSIFICATION_TYPE":"U","SEMIMAJOR_AXIS":"6925.373","REF_FRAME":"TEME","COUNTRY_CODE":"US","TLE_LINE2":"2 46034  53.0552 110.2815 0001362  91.3780 268.7365 15.06391998 79764","PERIOD":"95.593","RCS_SIZE":"LARGE","CENTER_NAME":"EARTH","OBJECT_ID":"2020-055H","MEAN_MOTION_DOT":"0.00001384","DECAY_DATE":null,"OBJECT_TYPE":"PAYLOAD","APOAPSIS":"548.181","MEAN_ANOMALY":"268.7365","EPOCH":"2022-01-09T15:58:59.788992","ARG_OF_PERICENTER":"91.3780","OBJECT_NAME":"STARLINK-1557","MEAN_MOTION_DDOT":"0.0000000000000","RA_OF_ASC_NODE":"110.2815","ELEMENT_SET_NO":"999","FILE":"3268323","TIME_SYSTEM":"UTC","BSTAR":"0.00011184000000","NORAD_CAT_ID":"46034","REV_AT_EPOCH":"7976","GP_ID":"193555482","LAUNCH_DATE":"2020-08-07","MEAN_ELEMENT_THEORY":"SGP4","SITE":"AFETR","INCLINATION":"53.0552","ECCENTRICITY":"0.00013620","EPHEMERIS_TYPE":"0","MEAN_MOTION":"15.06391998","TLE_LINE1":"1 46034U 20055H   22009.66596978  .00001384  00000-0  11184-3 0  9992","PERIAPSIS":"546.295"},{"TLE_LINE2":"2 46035  53.0541 110.2329 0001539 103.6142 256.5019 15.06398883 79792","COUNTRY_CODE":"US","SEMIMAJOR_AXIS":"6925.352","REF_FRAME":"TEME","CLASSIFICATION_TYPE":"U","ARG_OF_PERICENTER":"103.6142","EPOCH":"2022-01-09T16:09:36.458496","MEAN_ANOMALY":"256.5019","OBJECT_TYPE":"PAYLOAD","APOAPSIS":"548.283","DECAY_DATE":null,"MEAN_MOTION_DOT":"-0.00000476","OBJECT_ID":"2020-055J","RCS_SIZE":"LARGE","PERIOD":"95.592","CENTER_NAME":"EARTH","REV_AT_EPOCH":"7979","BSTAR":"-0.00001305200000","NORAD_CAT_ID":"46035","ELEMENT_SET_NO":"999","FILE":"3268323","TIME_SYSTEM":"UTC","MEAN_MOTION_DDOT":"0.0000000000000","RA_OF_ASC_NODE":"110.2329","OBJECT_NAME":"STARLINK-1558","TLE_LINE1":"1 46035U 20055J   22009.67333864 -.00000476  00000-0 -13052-4 0  9997","PERIAPSIS":"546.151","EPHEMERIS_TYPE":"0","MEAN_MOTION":"15.06398883","ECCENTRICITY":"0.00015390","MEAN_ELEMENT_THEORY":"SGP4","SITE":"AFETR","INCLINATION":"53.0541","LAUNCH_DATE":"2020-08-07","GP_ID":"193555732"},{"RA_OF_ASC_NODE":"110.5936","MEAN_MOTION_DDOT":"0.0000000000000","OBJECT_NAME":"STARLINK-1560","FILE":"3268062","TIME_SYSTEM":"UTC","ELEMENT_SET_NO":"999","BSTAR":"0.00001994000000","NORAD_CAT_ID":"46036","REV_AT_EPOCH":"7978","LAUNCH_DATE":"2020-08-07","GP_ID":"193526382","ECCENTRICITY":"0.00012860","MEAN_ELEMENT_THEORY":"SGP4","INCLINATION":"53.0537","SITE":"AFETR","PERIAPSIS":"546.331","TLE_LINE1":"1 46036U 20055K   22009.59225307  .00000016  00000-0  19940-4 0  9991","EPHEMERIS_TYPE":"0","MEAN_MOTION":"15.06397267","CLASSIFICATION_TYPE":"U","SEMIMAJOR_AXIS":"6925.357","REF_FRAME":"TEME","COUNTRY_CODE":"US","TLE_LINE2":"2 46036  53.0537 110.5936 0001286  90.8960 269.2176 15.06397267 79788","OBJECT_ID":"2020-055K","CENTER_NAME":"EARTH","RCS_SIZE":"LARGE","PERIOD":"95.592","MEAN_MOTION_DOT":"0.00000016","DECAY_DATE":null,"MEAN_ANOMALY":"269.2176","OBJECT_TYPE":"PAYLOAD","APOAPSIS":"548.113","ARG_OF_PERICENTER":"90.8960","EPOCH":"2022-01-09T14:12:50.665248"},{"MEAN_MOTION_DOT":"0.00001376","DECAY_DATE":null,"OBJECT_ID":"2020-055L","RCS_SIZE":"LARGE","PERIOD":"95.593","CENTER_NAME":"EARTH","ARG_OF_PERICENTER":"99.3953","EPOCH":"2022-01-09T14:07:32.174976","MEAN_ANOMALY":"260.7180","APOAPSIS":"548.112","OBJECT_TYPE":"PAYLOAD","REF_FRAME":"TEME","SEMIMAJOR_AXIS":"6925.366","CLASSIFICATION_TYPE":"U","TLE_LINE2":"2 46037  53.0553 110.6291 0001272  99.3953 260.7180 15.06394203 79770","COUNTRY_CODE":"US","ECCENTRICITY":"0.00012720","SITE":"AFETR","INCLINATION":"53.0553","MEAN_ELEMENT_THEORY":"SGP4","LAUNCH_DATE":"2020-08-07","GP_ID":"193526632","PERIAPSIS":"546.350","TLE_LINE1":"1 46037U 20055L   22009.58856684  .00001376  00000-0  11127-3 0  9997","MEAN_MOTION":"15.06394203","EPHEMERIS_TYPE":"0","FILE":"3268062","ELEMENT_SET_NO":"999","TIME_SYSTEM":"UTC","MEAN_MOTION_DDOT":"0.0000000000000","RA_OF_ASC_NODE":"110.6291","OBJECT_NAME":"STARLINK-1565","REV_AT_EPOCH":"7977","NORAD_CAT_ID":"46037","BSTAR":"0.00011127000000"},{"LAUNCH_DATE":"2020-08-07","GP_ID":"193555982","ECCENTRICITY":"0.00016300","MEAN_ELEMENT_THEORY":"SGP4","SITE":"AFETR","INCLINATION":"53.0549","PERIAPSIS":"546.082","TLE_LINE1":"1 46038U 20055M   22009.60330573  .00000194  00000-0  31904-4 0  9998","EPHEMERIS_TYPE":"0","MEAN_MOTION":"15.06400835","RA_OF_ASC_NODE":"110.5625","MEAN_MOTION_DDOT":"0.0000000000000","OBJECT_NAME":"STARLINK-1567","TIME_SYSTEM":"UTC","FILE":"3268323","ELEMENT_SET_NO":"999","BSTAR":"0.00003190400000","NORAD_CAT_ID":"46038","REV_AT_EPOCH":"7977","OBJECT_ID":"2020-055M","RCS_SIZE":"LARGE","CENTER_NAME":"EARTH","PERIOD":"95.592","MEAN_MOTION_DOT":"0.00000194","DECAY_DATE":null,"MEAN_ANOMALY":"255.2033","OBJECT_TYPE":"PAYLOAD","APOAPSIS":"548.340","ARG_OF_PERICENTER":"104.9137","EPOCH":"2022-01-09T14:28:45.615072","CLASSIFICATION_TYPE":"U","SEMIMAJOR_AXIS":"6925.346","REF_FRAME":"TEME","COUNTRY_CODE":"US","TLE_LINE2":"2 46038  53.0549 110.5625 0001630 104.9137 255.2033 15.06400835 79776"},{"NORAD_CAT_ID":"46039","BSTAR":"-0.00000185490000","REV_AT_EPOCH":"7978","RA_OF_ASC_NODE":"110.2306","MEAN_MOTION_DDOT":"0.0000000000000","OBJECT_NAME":"STARLINK-1569","ELEMENT_SET_NO":"999","FILE":"3268323","TIME_SYSTEM":"UTC","PERIAPSIS":"546.361","TLE_LINE1":"1 46039U 20055N   22009.67702608 -.00000309  00000-0 -18549-5 0  9999","MEAN_MOTION":"15.06398951","EPHEMERIS_TYPE":"0","LAUNCH_DATE":"2020-08-07","GP_ID":"193556232","ECCENTRICITY":"0.00012350","SITE":"AFETR","INCLINATION":"53.0544","MEAN_ELEMENT_THEORY":"SGP4","COUNTRY_CODE":"US","TLE_LINE2":"2 46039  53.0544 110.2306 0001235  99.1405 260.9724 15.06398951 79785","CLASSIFICATION_TYPE":"U","REF_FRAME":"TEME","SEMIMAJOR_AXIS":"6925.352","MEAN_ANOMALY":"260.9724","APOAPSIS":"548.072","OBJECT_TYPE":"PAYLOAD","ARG_OF_PERICENTER":"99.1405","EPOCH":"2022-01-09T16:14:55.053312","OBJECT_ID":"2020-055N","PERIOD":"95.592","RCS_SIZE":"LARGE","CENTER_NAME":"EARTH","DECAY_DATE":null,"MEAN_MOTION_DOT":"-0.00000309"},{"MEAN_MOTION_DOT":"0.00000560","DECAY_DATE":null,"OBJECT_ID":"2020-055P","RCS_SIZE":"LARGE","PERIOD":"95.593","CENTER_NAME":"EARTH","ARG_OF_PERICENTER":"88.6765","EPOCH":"2022-01-09T15:21:50.603328","MEAN_ANOMALY":"271.4378","APOAPSIS":"548.161","OBJECT_TYPE":"PAYLOAD","REF_FRAME":"TEME","SEMIMAJOR_AXIS":"6925.370","CLASSIFICATION_TYPE":"U","TLE_LINE2":"2 46040  53.0555 110.4000 0001337  88.6765 271.4378 15.06392929 79744","COUNTRY_CODE":"US","ECCENTRICITY":"0.00013370","INCLINATION":"53.0555","SITE":"AFETR","MEAN_ELEMENT_THEORY":"SGP4","LAUNCH_DATE":"2020-08-07","GP_ID":"193556984","PERIAPSIS":"546.309","TLE_LINE1":"1 46040U 20055P   22009.64016902  .00000560  00000-0  56502-4 0  9990","MEAN_MOTION":"15.06392929","EPHEMERIS_TYPE":"0","FILE":"3268323","ELEMENT_SET_NO":"999","TIME_SYSTEM":"UTC","MEAN_MOTION_DDOT":"0.0000000000000","RA_OF_ASC_NODE":"110.4000","OBJECT_NAME":"STARLINK-1576","REV_AT_EPOCH":"7974","NORAD_CAT_ID":"46040","BSTAR":"0.00005650200000"}];
